{"type": "FeatureCollection", "features": [ {"type": "Feature", "properties": {"norad_id": 28649, "name": "IRS-P5 (CARTOSAT-1)", "group": "resource", "lat": 72.01176591729701, "lon": -142.77458242797525, "alt_km": 589.3372477897192, "timestamp": "2025-12-12T16:50:32.803979+00:00", "meta": {"OBJECT_NAME": "IRS-P5 (CARTOSAT-1)", "OBJECT_ID": "2005-017A", "EPOCH": "2025-12-12T01:51:55.442592", "MEAN_MOTION": 14.90400603, "ECCENTRICITY": 0.00012533, "INCLINATION": 97.5498, "RA_OF_ASC_NODE": 12.5203, "ARG_OF_PERICENTER": 46.8293, "MEAN_ANOMALY": 313.303, "EPHEMERIS_TYPE": 0, "CLASSIFICATION_TYPE": "U", "NORAD_CAT_ID": 28649, "ELEMENT_SET_NO": 999, "REV_AT_EPOCH": 11594, "BSTAR": 0.00028659967, "MEAN_MOTION_DOT": 2.739e-05, "MEAN_MOTION_DDOT": 0}, "tle": {"line1": "1 28649U 05017A   25346.07772503  .00002739  00000+0  28660-3 0  9998", "line2": "2 28649  97.5498  12.5203 0001253  46.8293 313.3030 14.90400603115949"}}, "geometry": {"type": "Point", "coordinates": [-142.77458242797525, 72.01176591729701]}}, {"type": "Feature", "properties": {"norad_id": 28893, "name": "SINAH 1", "group": "resource", "lat": 74.41589269953612, "lon": -33.351310376248605, "alt_km": 664.3116762357076, "timestamp": "2025-12-12T16:50:32.803990+00:00", "meta": {"OBJECT_NAME": "SINAH 1", "OBJECT_ID": "2005-043D", "EPOCH": "2025-12-12T06:31:49.889280", "MEAN_MOTION": 14.63961879, "ECCENTRICITY": 0.00153119, "INCLINATION": 98.2602, "RA_OF_ASC_NODE": 114.828, "ARG_OF_PERICENTER": 138.3711, "MEAN_ANOMALY": 221.866, "EPHEMERIS_TYPE": 0, "CLASSIFICATION_TYPE": "U", "NORAD_CAT_ID": 28893, "ELEMENT_SET_NO": 999, "REV_AT_EPOCH": 7317, "BSTAR": 0.00016217286, "MEAN_MOTION_DOT": 8.01e-06, "MEAN_MOTION_DDOT": 0}, "tle": {"line1": "1 28893U 05043D   25346.27210520  .00000801  00000+0  16217-3 0  9999", "line2": "2 28893  98.2602 114.8280 0015311 138.3711 221.8660 14.63961879 73175"}}, "geometry": {"type": "Point", "coordinates": [-33.351310376248605, 74.41589269953612]}}, {"type": "Feature", "properties": {"norad_id": 29079, "name": "EROS B", "group": "resource", "lat": 78.93910735573687, "lon": -35.42683798331962, "alt_km": 357.9252442012121, "timestamp": "2025-12-12T16:50:32.804001+00:00", "meta": {"OBJECT_NAME": "EROS B", "OBJECT_ID": "2006-014A", "EPOCH": "2025-12-12T07:14:09.759840", "MEAN_MOTION": 15.68087281, "ECCENTRICITY": 0.00020577, "INCLINATION": 97.3464, "RA_OF_ASC_NODE": 102.8538, "ARG_OF_PERICENTER": 302.4357, "MEAN_ANOMALY": 57.6705, "EPHEMERIS_TYPE": 0, "CLASSIFICATION_TYPE": "U", "NORAD_CAT_ID": 29079, "ELEMENT_SET_NO": 999, "REV_AT_EPOCH": 9073, "BSTAR": 0.0017410141, "MEAN_MOTION_DOT": 0.0019735, "MEAN_MOTION_DDOT": 0}, "tle": {"line1": "1 29079U 06014A   25346.30150185  .00197350  00000+0  17410-2 0  9990", "line2": "2 29079  97.3464 102.8538 0002057 302.4357  57.6705 15.68087281 90732"}}, "geometry": {"type": "Point", "coordinates": [-35.42683798331962, 78.93910735573687]}}, {"type": "Feature", "properties": {"norad_id": 29228, "name": "RESURS-DK 1", "group": "resource", "lat": 18.80341158671738, "lon": 109.08692074519881, "alt_km": 531.8730130202603, "timestamp": "2025-12-12T16:50:32.804011+00:00", "meta": {"OBJECT_NAME": "RESURS-DK 1", "OBJECT_ID": "2006-021A", "EPOCH": "2025-12-12T07:13:42.259584", "MEAN_MOTION": 15.12156951, "ECCENTRICITY": 0.00072906, "INCLINATION": 69.9331, "RA_OF_ASC_NODE": 102.9717, "ARG_OF_PERICENTER": 260.1087, "MEAN_ANOMALY": 99.9256, "EPHEMERIS_TYPE": 0, "CLASSIFICATION_TYPE": "U", "NORAD_CAT_ID": 29228, "ELEMENT_SET_NO": 999, "REV_AT_EPOCH": 7431, "BSTAR": 0.0002489462, "MEAN_MOTION_DOT": 4.199e-05, "MEAN_MOTION_DDOT": 0}, "tle": {"line1": "1 29228U 06021A   25346.30118356  .00004199  00000+0  24895-3 0  9992", "line2": "2 29228  69.9331 102.9717 0007290 260.1087  99.9256 15.12156951 74316"}}, "geometry": {"type": "Point", "coordinates": [109.08692074519881, 18.80341158671738]}}, {"type": "Feature", "properties": {"norad_id": 29268, "name": "ARIRANG-2 (KOMPSAT-2)", "group": "resource", "lat": 8.658998577690282, "lon": 173.97599175457879, "alt_km": 675.616486596331, "timestamp": "2025-12-12T16:50:32.804022+00:00", "meta": {"OBJECT_NAME": "ARIRANG-2 (KOMPSAT-2)", "OBJECT_ID": "2006-031A", "EPOCH": "2025-12-12T07:45:19.709856", "MEAN_MOTION": 14.64492396, "ECCENTRICITY": 0.00135361, "INCLINATION": 97.8264, "RA_OF_ASC_NODE": 174.8162, "ARG_OF_PERICENTER": 310.7996, "MEAN_ANOMALY": 222.9562, "EPHEMERIS_TYPE": 0, "CLASSIFICATION_TYPE": "U", "NORAD_CAT_ID": 29268, "ELEMENT_SET_NO": 999, "REV_AT_EPOCH": 3412, "BSTAR": 0.00010574652, "MEAN_MOTION_DOT": 5.16e-06, "MEAN_MOTION_DDOT": 0}, "tle": {"line1": "1 29268U 06031A   25346.32314479  .00000516  00000+0  10575-3 0  9992", "line2": "2 29268  97.8264 174.8162 0013536 310.7996 222.9562 14.64492396 34123"}}, "geometry": {"type": "Point", "coordinates": [173.97599175457879, 8.658998577690282]}}, {"type": "Feature", "properties": {"norad_id": 29709, "name": "LAPAN-TUBSAT", "group": "resource", "lat": -58.792695791863565, "lon": -9.500232894017993, "alt_km": 625.1804655156257, "timestamp": "2025-12-12T16:50:32.804032+00:00", "meta": {"OBJECT_NAME": "LAPAN-TUBSAT", "OBJECT_ID": "2007-001A", "EPOCH": "2025-12-12T04:10:47.551008", "MEAN_MOTION": 14.85667916, "ECCENTRICITY": 0.00136337, "INCLINATION": 98.1261, "RA_OF_ASC_NODE": 336.319, "ARG_OF_PERICENTER": 75.6504, "MEAN_ANOMALY": 284.6223, "EPHEMERIS_TYPE": 0, "CLASSIFICATION_TYPE": "U", "NORAD_CAT_ID": 29709, "ELEMENT_SET_NO": 999, "REV_AT_EPOCH": 2338, "BSTAR": 9.5582287e-05, "MEAN_MOTION_DOT": 7.72e-06, "MEAN_MOTION_DDOT": 0}, "tle": {"line1": "1 29709U 07001A   25346.17416147  .00000772  00000+0  95582-4 0  9994", "line2": "2 29709  98.1261 336.3190 0013633  75.6504 284.6223 14.85667916 23380"}}, "geometry": {"type": "Point", "coordinates": [-9.500232894017993, -58.792695791863565]}}, {"type": "Feature", "properties": {"norad_id": 31113, "name": "HAIYANG-1B", "group": "resource", "lat": -13.148316044652901, "lon": 149.01971608452752, "alt_km": 802.275796978769, "timestamp": "2025-12-12T16:50:32.804042+00:00", "meta": {"OBJECT_NAME": "HAIYANG-1B", "OBJECT_ID": "2007-010A", "EPOCH": "2025-12-12T05:52:27.763392", "MEAN_MOTION": 14.30964775, "ECCENTRICITY": 0.00142732, "INCLINATION": 98.3315, "RA_OF_ASC_NODE": 330.5433, "ARG_OF_PERICENTER": 39.3381, "MEAN_ANOMALY": 320.8837, "EPHEMERIS_TYPE": 0, "CLASSIFICATION_TYPE": "U", "NORAD_CAT_ID": 31113, "ELEMENT_SET_NO": 999, "REV_AT_EPOCH": 97389, "BSTAR": 9.7097692e-05, "MEAN_MOTION_DOT": 2.14e-06, "MEAN_MOTION_DDOT": 0}, "tle": {"line1": "1 31113U 07010A   25346.24476578  .00000214  00000+0  97098-4 0  9993", "line2": "2 31113  98.3315 330.5433 0014273  39.3381 320.8837 14.30964775973898"}}, "geometry": {"type": "Point", "coordinates": [149.01971608452752, -13.148316044652901]}}, {"type": "Feature", "properties": {"norad_id": 31598, "name": "COSMO-SKYMED 1", "group": "resource", "lat": -73.20998077715547, "lon": -35.23695372189177, "alt_km": 588.1157967252657, "timestamp": "2025-12-12T16:50:32.804053+00:00", "meta": {"OBJECT_NAME": "COSMO-SKYMED 1", "OBJECT_ID": "2007-023A", "EPOCH": "2025-12-12T07:40:39.910368", "MEAN_MOTION": 14.95759021, "ECCENTRICITY": 0.00011763, "INCLINATION": 97.8835, "RA_OF_ASC_NODE": 171.7163, "ARG_OF_PERICENTER": 88.8836, "MEAN_ANOMALY": 271.2519, "EPHEMERIS_TYPE": 0, "CLASSIFICATION_TYPE": "U", "NORAD_CAT_ID": 31598, "ELEMENT_SET_NO": 999, "REV_AT_EPOCH": 184, "BSTAR": 0.00054439299, "MEAN_MOTION_DOT": 6.012e-05, "MEAN_MOTION_DDOT": 0}, "tle": {"line1": "1 31598U 07023A   25346.31990637  .00006012  00000+0  54439-3 0  9992", "line2": "2 31598  97.8835 171.7163 0001176  88.8836 271.2519 14.95759021  1843"}}, "geometry": {"type": "Point", "coordinates": [-35.23695372189177, -73.20998077715547]}}, {"type": "Feature", "properties": {"norad_id": 31698, "name": "TERRASAR-X", "group": "resource", "lat": -82.23931872854669, "lon": 98.42790412128706, "alt_km": 517.0492278690117, "timestamp": "2025-12-12T16:50:32.804063+00:00", "meta": {"OBJECT_NAME": "TERRASAR-X", "OBJECT_ID": "2007-026A", "EPOCH": "2025-12-11T11:12:43.517376", "MEAN_MOTION": 15.19155336, "ECCENTRICITY": 0.00018891, "INCLINATION": 97.4455, "RA_OF_ASC_NODE": 350.8663, "ARG_OF_PERICENTER": 92.9175, "MEAN_ANOMALY": 267.2276, "EPHEMERIS_TYPE": 0, "CLASSIFICATION_TYPE": "U", "NORAD_CAT_ID": 31698, "ELEMENT_SET_NO": 999, "REV_AT_EPOCH": 2472, "BSTAR": 9.3381918e-05, "MEAN_MOTION_DOT": 1.895e-05, "MEAN_MOTION_DDOT": 0}, "tle": {"line1": "1 31698U 07026A   25345.46717034  .00001895  00000+0  93382-4 0  9994", "line2": "2 31698  97.4455 350.8663 0001889  92.9175 267.2276 15.19155336 24729"}}, "geometry": {"type": "Point", "coordinates": [98.42790412128706, -82.23931872854669]}}, {"type": "Feature", "properties": {"norad_id": 32060, "name": "WORLDVIEW-1 (WV-1)", "group": "resource", "lat": -82.42807837928318, "lon": -153.10913114678374, "alt_km": 499.61547672916186, "timestamp": "2025-12-12T16:50:32.804073+00:00", "meta": {"OBJECT_NAME": "WORLDVIEW-1 (WV-1)", "OBJECT_ID": "2007-041A", "EPOCH": "2025-12-12T06:13:06.052512", "MEAN_MOTION": 15.24678697, "ECCENTRICITY": 8.011e-05, "INCLINATION": 97.3834, "RA_OF_ASC_NODE": 103.7466, "ARG_OF_PERICENTER": 107.0859, "MEAN_ANOMALY": 253.0467, "EPHEMERIS_TYPE": 0, "CLASSIFICATION_TYPE": "U", "NORAD_CAT_ID": 32060, "ELEMENT_SET_NO": 999, "REV_AT_EPOCH": 1440, "BSTAR": 0.00051353225, "MEAN_MOTION_DOT": 0.00012631, "MEAN_MOTION_DDOT": 0}, "tle": {"line1": "1 32060U 07041A   25346.25909783  .00012631  00000+0  51353-3 0  9998", "line2": "2 32060  97.3834 103.7466 0000801 107.0859 253.0467 15.24678697 14404"}}, "geometry": {"type": "Point", "coordinates": [-153.10913114678374, -82.42807837928318]}}]}